[{"OBJECT_NAME":"STARLINK-3449","OBJECT_ID":"2022-016AH","EPOCH":"2025-11-07T19:38:15.870336","MEAN_MOTION":15.08846593,"ECCENTRICITY":0.0001307,"INCLINATION":53.2146,"RA_OF_ASC_NODE":146.2218,"ARG_OF_PERICENTER":91.6257,"MEAN_ANOMALY":268.4884,"EPHEMERIS_TYPE":0,"CLASSIFICATION_TYPE":"U","NORAD_CAT_ID":51745,"ELEMENT_SET_NO":999,"REV_AT_EPOCH":20516,"BSTAR":0.00011239,"MEAN_MOTION_DOT":1.502e-5,"MEAN_MOTION_DDOT":0},{"OBJECT_NAME":"STARLINK-3502","OBJECT_ID":"2022-016AJ","EPOCH":"2025-11-07T20:02:09.845952","MEAN_MOTION":15.0883408,"ECCENTRICITY":0.0001053,"INCLINATION":53.2175,"RA_OF_ASC_NODE":136.1571,"ARG_OF_PERICENTER":87.863,"MEAN_ANOMALY":272.2482,"EPHEMERIS_TYPE":0,"CLASSIFICATION_TYPE":"U","NORAD_CAT_ID":51746,"ELEMENT_SET_NO":999,"REV_AT_EPOCH":20530,"BSTAR":8.4253e-5,"MEAN_MOTION_DOT":1.053e-5,"MEAN_MOTION_DDOT":0},{"OBJECT_NAME":"STARLINK-3446","OBJECT_ID":"2022-016AK","EPOCH":"2025-11-07T19:29:04.902720","MEAN_MOTION":15.08824693,"ECCENTRICITY":0.0001175,"INCLINATION":53.2176,"RA_OF_ASC_NODE":146.3021,"ARG_OF_PERICENTER":92.1813,"MEAN_ANOMALY":267.9314,"EPHEMERIS_TYPE":0,"CLASSIFICATION_TYPE":"U","NORAD_CAT_ID":51747,"ELEMENT_SET_NO":999,"REV_AT_EPOCH":20516,"BSTAR":-0.00011347,"MEAN_MOTION_DOT":-2.092e-5,"MEAN_MOTION_DDOT":0},{"OBJECT_NAME":"STARLINK-3501","OBJECT_ID":"2022-016AL","EPOCH":"2025-11-07T19:50:09.587904","MEAN_MOTION":15.08851451,"ECCENTRICITY":0.0001365,"INCLINATION":53.2163,"RA_OF_ASC_NODE":136.1859,"ARG_OF_PERICENTER":94.1707,"MEAN_ANOMALY":265.9442,"EPHEMERIS_TYPE":0,"CLASSIFICATION_TYPE":"U","NORAD_CAT_ID":51748,"ELEMENT_SET_NO":999,"REV_AT_EPOCH":20530,"BSTAR":0.00011432,"MEAN_MOTION_DOT":1.532e-5,"MEAN_MOTION_DDOT":0},{"OBJECT_NAME":"STARLINK-3451","OBJECT_ID":"2022-016AM","EPOCH":"2025-11-07T06:12:48.858048","MEAN_MOTION":15.08836105,"ECCENTRICITY":0.0001223,"INCLINATION":53.216,"RA_OF_ASC_NODE":148.9164,"ARG_OF_PERICENTER":88.3242,"MEAN_ANOMALY":271.7891,"EPHEMERIS_TYPE":0,"CLASSIFICATION_TYPE":"U","NORAD_CAT_ID":51749,"ELEMENT_SET_NO":999,"REV_AT_EPOCH":20507,"BSTAR":2.1808e-5,"MEAN_MOTION_DOT":5.9e-7,"MEAN_MOTION_DDOT":0},{"OBJECT_NAME":"STARLINK-3505","OBJECT_ID":"2022-016AN","EPOCH":"2025-11-07T19:41:00.529728","MEAN_MOTION":15.08815636,"ECCENTRICITY":0.0001358,"INCLINATION":53.2137,"RA_OF_ASC_NODE":136.2239,"ARG_OF_PERICENTER":84.317,"MEAN_ANOMALY":275.7977,"EPHEMERIS_TYPE":0,"CLASSIFICATION_TYPE":"U","NORAD_CAT_ID":51750,"ELEMENT_SET_NO":999,"REV_AT_EPOCH":20530,"BSTAR":-9.6606e-5,"MEAN_MOTION_DOT":-1.824e-5,"MEAN_MOTION_DDOT":0},{"OBJECT_NAME":"STARLINK-3506","OBJECT_ID":"2022-016AP","EPOCH":"2025-11-07T19:56:52.033920","MEAN_MOTION":15.08837729,"ECCENTRICITY":0.0001283,"INCLINATION":53.2156,"RA_OF_ASC_NODE":136.1747,"ARG_OF_PERICENTER":107.0609,"MEAN_ANOMALY":253.0524,"EPHEMERIS_TYPE":0,"CLASSIFICATION_TYPE":"U","NORAD_CAT_ID":51751,"ELEMENT_SET_NO":999,"REV_AT_EPOCH":20530,"BSTAR":3.7668e-5,"MEAN_MOTION_DOT":3.12e-6,"MEAN_MOTION_DDOT":0},{"OBJECT_NAME":"STARLINK-3511","OBJECT_ID":"2022-016AQ","EPOCH":"2025-11-07T19:25:03.285120","MEAN_MOTION":15.08836532,"ECCENTRICITY":0.0001468,"INCLINATION":53.2137,"RA_OF_ASC_NODE":136.1958,"ARG_OF_PERICENTER":90.4917,"MEAN_ANOMALY":269.6243,"EPHEMERIS_TYPE":0,"CLASSIFICATION_TYPE":"U","NORAD_CAT_ID":51752,"ELEMENT_SET_NO":999,"REV_AT_EPOCH":20530,"BSTAR":-1.8451e-5,"MEAN_MOTION_DOT":-5.82e-6,"MEAN_MOTION_DDOT":0},{"OBJECT_NAME":"STARLINK-3507","OBJECT_ID":"2022-016AR","EPOCH":"2025-11-07T19:46:16.155840","MEAN_MOTION":15.08835448,"ECCENTRICITY":0.000152,"INCLINATION":53.2187,"RA_OF_ASC_NODE":136.2082,"ARG_OF_PERICENTER":97.5326,"MEAN_ANOMALY":262.5839,"EPHEMERIS_TYPE":0,"CLASSIFICATION_TYPE":"U","NORAD_CAT_ID":51753,"ELEMENT_SET_NO":999,"REV_AT_EPOCH":20530,"BSTAR":3.387e-5,"MEAN_MOTION_DOT":2.51e-6,"MEAN_MOTION_DDOT":0},{"OBJECT_NAME":"STARLINK-3457","OBJECT_ID":"2022-016AS","EPOCH":"2025-11-07T18:51:51.052320","MEAN_MOTION":15.08838089,"ECCENTRICITY":0.0001541,"INCLINATION":53.2161,"RA_OF_ASC_NODE":136.1268,"ARG_OF_PERICENTER":92.5449,"MEAN_ANOMALY":267.5719,"EPHEMERIS_TYPE":0,"CLASSIFICATION_TYPE":"U","NORAD_CAT_ID":51754,"ELEMENT_SET_NO":999,"REV_AT_EPOCH":20530,"BSTAR":3.0137e-5,"MEAN_MOTION_DOT":1.92e-6,"MEAN_MOTION_DDOT":0},{"OBJECT_NAME":"STARLINK-3460","OBJECT_ID":"2022-016AT","EPOCH":"2025-11-07T19:28:59.392128","MEAN_MOTION":15.08833831,"ECCENTRICITY":0.0001449,"INCLINATION":53.2147,"RA_OF_ASC_NODE":136.2506,"ARG_OF_PERICENTER":90.7177,"MEAN_ANOMALY":269.3981,"EPHEMERIS_TYPE":0,"CLASSIFICATION_TYPE":"U","NORAD_CAT_ID":51755,"ELEMENT_SET_NO":999,"REV_AT_EPOCH":20530,"BSTAR":-1.1444e-5,"MEAN_MOTION_DOT":-4.7e-6,"MEAN_MOTION_DDOT":0},{"OBJECT_NAME":"STARLINK-3513","OBJECT_ID":"2022-016AU","EPOCH":"2025-11-07T12:25:02.942688","MEAN_MOTION":15.08840312,"ECCENTRICITY":0.0001587,"INCLINATION":53.216,"RA_OF_ASC_NODE":137.5738,"ARG_OF_PERICENTER":91.22,"MEAN_ANOMALY":268.8974,"EPHEMERIS_TYPE":0,"CLASSIFICATION_TYPE":"U","NORAD_CAT_ID":51756,"ELEMENT_SET_NO":999,"REV_AT_EPOCH":20526,"BSTAR":7.6308e-5,"MEAN_MOTION_DOT":9.27e-6,"MEAN_MOTION_DDOT":0},{"OBJECT_NAME":"STARLINK-3459","OBJECT_ID":"2022-016AV","EPOCH":"2025-11-07T18:42:40.278240","MEAN_MOTION":15.08833199,"ECCENTRICITY":0.0001339,"INCLINATION":53.2159,"RA_OF_ASC_NODE":136.4067,"ARG_OF_PERICENTER":94.904,"MEAN_ANOMALY":265.2105,"EPHEMERIS_TYPE":0,"CLASSIFICATION_TYPE":"U","NORAD_CAT_ID":51757,"ELEMENT_SET_NO":999,"REV_AT_EPOCH":20530,"BSTAR":0.0001219,"MEAN_MOTION_DOT":1.652e-5,"MEAN_MOTION_DDOT":0},{"OBJECT_NAME":"STARLINK-3458","OBJECT_ID":"2022-016AW","EPOCH":"2025-11-07T20:06:04.713984","MEAN_MOTION":15.08833457,"ECCENTRICITY":0.0001441,"INCLINATION":53.2187,"RA_OF_ASC_NODE":136.0856,"ARG_OF_PERICENTER":85.3181,"MEAN_ANOMALY":274.7976,"EPHEMERIS_TYPE":0,"CLASSIFICATION_TYPE":"U","NORAD_CAT_ID":51758,"ELEMENT_SET_NO":999,"REV_AT_EPOCH":20645,"BSTAR":9.7355e-6,"MEAN_MOTION_DOT":-1.33e-6,"MEAN_MOTION_DDOT":0},{"OBJECT_NAME":"STARLINK-3456","OBJECT_ID":"2022-016AX","EPOCH":"2025-11-07T20:11:23.325216","MEAN_MOTION":15.08840727,"ECCENTRICITY":0.0001483,"INCLINATION":53.2158,"RA_OF_ASC_NODE":136.1192,"ARG_OF_PERICENTER":81.8831,"MEAN_ANOMALY":278.233,"EPHEMERIS_TYPE":0,"CLASSIFICATION_TYPE":"U","NORAD_CAT_ID":51759,"ELEMENT_SET_NO":999,"REV_AT_EPOCH":20531,"BSTAR":-1.2253e-5,"MEAN_MOTION_DOT":-4.83e-6,"MEAN_MOTION_DDOT":0},{"OBJECT_NAME":"STARLINK-3622","OBJECT_ID":"2022-017A","EPOCH":"2025-11-07T14:33:34.133184","MEAN_MOTION":15.08824759,"ECCENTRICITY":0.0002087,"INCLINATION":53.2136,"RA_OF_ASC_NODE":167.1717,"ARG_OF_PERICENTER":86.6893,"MEAN_ANOMALY":273.4337,"EPHEMERIS_TYPE":0,"CLASSIFICATION_TYPE":"U","NORAD_CAT_ID":51768,"ELEMENT_SET_NO":999,"REV_AT_EPOCH":20561,"BSTAR":3.483e-5,"MEAN_MOTION_DOT":2.66e-6,"MEAN_MOTION_DDOT":0},{"OBJECT_NAME":"STARLINK-3621","OBJECT_ID":"2022-017B","EPOCH":"2025-11-07T19:09:06.905376","MEAN_MOTION":15.08833152,"ECCENTRICITY":0.0001382,"INCLINATION":53.2148,"RA_OF_ASC_NODE":166.3129,"ARG_OF_PERICENTER":104.7117,"MEAN_ANOMALY":255.4029,"EPHEMERIS_TYPE":0,"CLASSIFICATION_TYPE":"U","NORAD_CAT_ID":51769,"ELEMENT_SET_NO":999,"REV_AT_EPOCH":20420,"BSTAR":-9.0322e-5,"MEAN_MOTION_DOT":-1.725e-5,"MEAN_MOTION_DDOT":0}]
