STARLINK-3449           
1 51745U 22016AH  25311.81823924  .00001502  00000+0  11239-3 0  9998
2 51745  53.2146 146.2218 0001307  91.6257 268.4884 15.08846593205163
STARLINK-3502           
1 51746U 22016AJ  25311.83483618  .00001053  00000+0  84253-4 0  9991
2 51746  53.2175 136.1571 0001053  87.8630 272.2482 15.08834080205307
STARLINK-3446           
1 51747U 22016AK  25311.81186230 -.00002092  00000+0 -11347-3 0  9999
2 51747  53.2176 146.3021 0001175  92.1813 267.9314 15.08824693205167
STARLINK-3501           
1 51748U 22016AL  25311.82649986  .00001532  00000+0  11432-3 0  9994
2 51748  53.2163 136.1859 0001365  94.1707 265.9442 15.08851451205303
STARLINK-3451           
1 51749U 22016AM  25311.25889882  .00000059  00000+0  21808-4 0  9995
2 51749  53.2160 148.9164 0001223  88.3242 271.7891 15.08836105205079
STARLINK-3505           
1 51750U 22016AN  25311.82014502 -.00001824  00000+0 -96606-4 0  9990
2 51750  53.2137 136.2239 0001358  84.3170 275.7977 15.08815636205304
STARLINK-3506           
1 51751U 22016AP  25311.83115780  .00000312  00000+0  37668-4 0  9994
2 51751  53.2156 136.1747 0001283 107.0609 253.0524 15.08837729205300
STARLINK-3511           
1 51752U 22016AQ  25311.80906580 -.00000582  00000+0 -18451-4 0  9998
2 51752  53.2137 136.1958 0001468  90.4917 269.6243 15.08836532205308
STARLINK-3507           
1 51753U 22016AR  25311.82379810  .00000251  00000+0  33870-4 0  9994
2 51753  53.2187 136.2082 0001520  97.5326 262.5839 15.08835448205302
STARLINK-3457           
1 51754U 22016AS  25311.78600755  .00000192  00000+0  30137-4 0  9992
2 51754  53.2161 136.1268 0001541  92.5449 267.5719 15.08838089205300
STARLINK-3460           
1 51755U 22016AT  25311.81179852 -.00000470  00000+0 -11444-4 0  9997
2 51755  53.2147 136.2506 0001449  90.7177 269.3981 15.08833831205307
STARLINK-3513           
1 51756U 22016AU  25311.51739517  .00000927  00000+0  76308-4 0  9990
2 51756  53.2160 137.5738 0001587  91.2200 268.8974 15.08840312205263
STARLINK-3459           
1 51757U 22016AV  25311.77963285  .00001652  00000+0  12190-3 0  9994
2 51757  53.2159 136.4067 0001339  94.9040 265.2105 15.08833199205309
STARLINK-3458           
1 51758U 22016AW  25311.83755456 -.00000133  00000+0  97355-5 0  9993
2 51758  53.2187 136.0856 0001441  85.3181 274.7976 15.08833457206452
STARLINK-3456           
1 51759U 22016AX  25311.84124219 -.00000483  00000+0 -12253-4 0  9994
2 51759  53.2158 136.1192 0001483  81.8831 278.2330 15.08840727205319
STARLINK-3622           
1 51768U 22017A   25311.60664506  .00000266  00000+0  34830-4 0  9999
2 51768  53.2136 167.1717 0002087  86.6893 273.4337 15.08824759205618
STARLINK-3621           
1 51769U 22017B   25311.79799659 -.00001725  00000+0 -90322-4 0  9999
2 51769  53.2148 166.3129 0001382 104.7117 255.4029 15.08833152204207
